0 SL-12 R/B(2)
1 27444U 02029D   13283.38652334  .00000026  00000-0  10000-3 0  2697
2 27444 009.7443 049.0718 0008663 270.6343 089.2800 00.99266490 41105
0 SL-12 R/B(2)
1 27444U 02029D   13285.40122434  .00000045  00000-0  10000-3 0  2708
2 27444 009.7479 049.0486 0008844 269.6428 090.2736 00.99266666 41126
0 SL-12 R/B(2)
1 27444U 02029D   13287.41589627  .00000059  00000-0  10000-3 0  2718
2 27444 009.7516 049.0257 0008884 269.9908 089.9203 00.99267019 41143
0 SL-12 R/B(2)
1 27444U 02029D   13289.43051884  .00000064  00000-0  10000-3 0  2728
2 27444 009.7555 049.0030 0009098 269.1880 090.7001 00.99267520 41169
0 SL-12 R/B(2)
1 27444U 02029D   13290.43784750  .00000000  00000-0  10000-3 0  2747
2 27444 009.7583 048.9907 0009252 267.9378 091.9471 00.99263744 41170
0 SL-12 R/B(2)
1 27444U 02029D   13291.44512703  .00000060  00000-0  10000-3 0  2731
2 27444 009.7592 048.9800 0009121 268.8228 091.0439 00.99268168 41182
0 SL-12 R/B(2)
1 27444U 02029D   13293.45974162  .00000046  00000-0  10000-3 0  2740
2 27444 009.7628 048.9568 0009040 269.2667 090.5876 00.99268927 41200
0 SL-12 R/B(2)
1 27444U 02029D   13295.47436715  .00000021  00000-0  10000-3 0  2755
2 27444 009.7664 048.9338 0009029 269.4309 090.4220 00.99269770 41228
